{
  "type": "FeatureCollection",
  "features": [
    {
      "type": "Feature",
      "properties": {
        "norad_id": 54259,
        "name": "EUTELSAT 10B",
        "group": "eutelsat",
        "lat": 0.018458053651988406,
        "lon": -142.85036581788646,
        "alt_km": 35783.68238511187,
        "timestamp": "2025-12-03T08:58:45.670874+00:00",
        "meta_object_name": "EUTELSAT 10B",
        "meta_object_id": "2022-157A",
        "meta_epoch": "2025-12-03T01:49:06.585024",
        "meta_mean_motion": 1.00268388,
        "meta_eccentricity": 0.0001044,
        "meta_inclination": 0.0603,
        "meta_ra_of_asc_node": 103.8512,
        "meta_arg_of_pericenter": 72.435,
        "meta_mean_anomaly": 293.178,
        "meta_ephemeris_type": 0,
        "meta_classification_type": "U",
        "meta_norad_cat_id": 54259,
        "meta_element_set_no": 999,
        "meta_rev_at_epoch": 1106,
        "meta_bstar": 0,
        "meta_mean_motion_dot": 8.7e-07,
        "meta_mean_motion_ddot": 0,
        "tle_line1": "1 54259U 22157A   25337.07577066  .00000087  00000+0  00000+0 0  9993",
        "tle_line2": "2 54259   0.0603 103.8512 0001044  72.4350 293.1780  1.00268388 11060"
      },
      "geometry": {
        "type": "Point",
        "coordinates": [
          -142.85036581788646,
          0.018458053651988406
        ]
      }
    },
    {
      "type": "Feature",
      "properties": {
        "norad_id": 59346,
        "name": "EUTELSAT 36D",
        "group": "eutelsat",
        "lat": -0.04598387725823042,
        "lon": -117.02696228943591,
        "alt_km": 35785.042471829336,
        "timestamp": "2025-12-03T08:58:45.670888+00:00",
        "meta_object_name": "EUTELSAT 36D",
        "meta_object_id": "2024-059A",
        "meta_epoch": "2025-12-03T01:56:28.381056",
        "meta_mean_motion": 1.00270583,
        "meta_eccentricity": 6.06e-05,
        "meta_inclination": 0.0226,
        "meta_ra_of_asc_node": 339.286,
        "meta_arg_of_pericenter": 322.1144,
        "meta_mean_anomaly": 195.7445,
        "meta_ephemeris_type": 0,
        "meta_classification_type": "U",
        "meta_norad_cat_id": 59346,
        "meta_element_set_no": 999,
        "meta_rev_at_epoch": 618,
        "meta_bstar": 0,
        "meta_mean_motion_dot": 0,
        "meta_mean_motion_ddot": 0,
        "tle_line1": "1 59346U 24059A   25337.08088404  .00000000  00000+0  00000+0 0  9997",
        "tle_line2": "2 59346   0.0226 339.2860 0000606 322.1144 195.7445  1.00270583  6185"
      },
      "geometry": {
        "type": "Point",
        "coordinates": [
          -117.02696228943591,
          -0.04598387725823042
        ]
      }
    }
  ]
}